H1 CPF  1  DLR 2021 02 16 10  5472 technosat            
H2  1704205 6203    42829 2021 02 16 00 00 00 2021 02 23 00 00 00    60 1 1  0 0 0
H9
10 0 59264  14400.000000  0       1774283.491       4645709.234       4891017.144
10 0 59264  14460.000000  0       1755033.863       4306276.629       5197529.689
10 0 59264  14520.000000  0       1725365.946       3948973.894       5482056.865
10 0 59264  14580.000000  0       1685254.799       3575392.398       5743394.705
10 0 59264  14640.000000  0       1634733.499       3187191.766       5980436.992
10 0 59264  14700.000000  0       1573893.531       2786092.401       6192179.839
10 0 59264  14760.000000  0       1502884.881       2373867.781       6377725.828
10 0 59264  14820.000000  0       1421915.856       1952336.554       6536287.707
10 0 59264  14880.000000  0       1331252.581       1523354.435       6667191.606
10 0 59264  14940.000000  0       1231218.189       1088806.029       6769879.745
10 0 59264  15000.000000  0       1122191.723        650596.612       6843912.693
10 0 59264  15060.000000  0       1004606.764        210643.899       6888971.221
10 0 59264  15120.000000  0        878949.744       -229130.267       6904857.799
10 0 59264  15180.000000  0        745757.962       -666808.373       6891497.568
10 0 59264  15240.000000  0        605617.325      -1100485.598       6848938.723
10 0 59264  15300.000000  0        459159.803      -1528278.099       6777352.471
10 0 59264  15360.000000  0        307060.602      -1948331.215       6677032.489
10 0 59264  15420.000000  0        150035.098      -2358827.568       6548393.932
10 0 59264  15480.000000  0        -11164.505      -2757995.100       6391971.878
10 0 59264  15540.000000  0       -175752.673      -3144114.793       6208419.157
10 0 59264  15600.000000  0       -342914.262      -3515528.120       5998503.865
10 0 59264  15660.000000  0       -511808.463      -3870644.303       5763106.381
10 0 59264  15720.000000  0       -681572.891      -4207947.263       5503215.968
10 0 59264  15780.000000  0       -851327.890      -4526002.385       5219926.998
10 0 59264  15840.000000  0      -1020181.053      -4823462.996       4914434.619
10 0 59264  15900.000000  0      -1187231.866      -5099076.496       4588029.896
10 0 59264  15960.000000  0      -1351576.433      -5351690.040       4242094.438
10 0 59264  16020.000000  0      -1512312.281      -5580255.756       3878094.589
10 0 59264  16080.000000  0      -1668543.223      -5783835.453       3497575.204
10 0 59264  16140.000000  0      -1819384.261      -5961604.809       3102153.062
10 0 59264  16200.000000  0      -1963966.492      -6112857.039       2693509.949
10 0 59264  16260.000000  0      -2101442.007      -6237006.045       2273385.370
10 0 59264  16320.000000  0      -2230988.703      -6333588.934       1843568.909
10 0 59264  16380.000000  0      -2351814.956      -6402267.937       1405892.362
10 0 59264  16440.000000  0      -2463164.194      -6442831.736        962221.644
10 0 59264  16500.000000  0      -2564319.324      -6455196.140        514448.512
10 0 59264  16560.000000  0      -2654606.953      -6439404.129         64482.152
10 0 59264  16620.000000  0      -2733401.410      -6395625.263       -385759.317
10 0 59264  16680.000000  0      -2800128.536      -6324154.450       -834357.386
10 0 59264  16740.000000  0      -2854269.209      -6225410.083      -1279401.684
10 0 59264  16800.000000  0      -2895362.604      -6099931.562      -1718998.446
10 0 59264  16860.000000  0      -2923009.141      -5948376.231      -2151278.879
10 0 59264  16920.000000  0      -2936873.118      -5771515.738      -2574407.395
10 0 59264  16980.000000  0      -2936684.995      -5570231.821      -2986589.647
10 0 59264  17040.000000  0      -2922243.313      -5345511.567      -3386080.307
10 0 59264  17100.000000  0      -2893416.257      -5098442.204      -3771190.531
10 0 59264  17160.000000  0      -2850142.854      -4830205.455      -4140295.093
10 0 59264  17220.000000  0      -2792433.815      -4542071.544      -4491839.177
10 0 59264  17280.000000  0      -2720372.013      -4235392.829      -4824344.803
10 0 59264  17340.000000  0      -2634112.613      -3911597.128      -5136416.857
10 0 59264  17400.000000  0      -2533882.849      -3572180.789      -5426748.722
10 0 59264  17460.000000  0      -2419981.450      -3218701.503      -5694127.481
10 0 59264  17520.000000  0      -2292777.707      -2852770.929      -5937438.692
10 0 59264  17580.000000  0      -2152710.179      -2476047.162      -6155670.709
10 0 59264  17640.000000  0      -2000285.045      -2090227.060      -6347918.532
10 0 59264  17700.000000  0      -1836074.153      -1697038.509      -6513387.146
10 0 59264  17760.000000  0      -1660712.791      -1298232.667      -6651394.406
10 0 59264  17820.000000  0      -1474897.158       -895576.181      -6761373.471
10 0 59264  17880.000000  0      -1279381.572       -490843.444      -6842874.746
10 0 59264  17940.000000  0      -1074975.405        -85808.915      -6895567.423
10 0 59264  18000.000000  0       -862539.705        317760.469      -6919240.582
10 0 59264  18060.000000  0       -642983.585        718112.805      -6913803.860
10 0 59264  18120.000000  0       -417260.371       1113518.691      -6879287.639
10 0 59264  18180.000000  0       -186363.582       1502278.438      -6815842.729
10 0 59264  18240.000000  0         48677.294       1882729.141      -6723739.783
10 0 59264  18300.000000  0        286801.293       2253251.679      -6603368.261
10 0 59264  18360.000000  0        526920.723       2612277.476      -6455234.884
10 0 59264  18420.000000  0        767926.044       2958295.040      -6279961.627
10 0 59264  18480.000000  0       1008690.854       3289856.259      -6078283.219
10 0 59264  18540.000000  0       1248077.001       3605582.353      -5851044.258
10 0 59264  18600.000000  0       1484939.841       3904169.570      -5599195.970
10 0 59264  18660.000000  0       1718133.606       4184394.605      -5323792.521
10 0 59264  18720.000000  0       1946516.846       4445119.686      -5025986.897
10 0 59264  18780.000000  0       2168957.934       4685297.337      -4707026.368
10 0 59264  18840.000000  0       2384340.583       4903974.740      -4368247.469
10 0 59264  18900.000000  0       2591569.335       5100297.633      -4011070.635
10 0 59264  18960.000000  0       2789575.049       5273513.818      -3636994.517
10 0 59264  19020.000000  0       2977320.361       5422976.268      -3247589.908
10 0 59264  19080.000000  0       3153805.054       5548145.762      -2844493.294
10 0 59264  19140.000000  0       3318071.333       5648592.989      -2429400.066
10 0 59264  19200.000000  0       3469208.913       5724000.154      -2004057.484
10 0 59264  19260.000000  0       3606359.959       5774162.126      -1570257.357
10 0 59264  19320.000000  0       3728723.800       5798987.024      -1129828.450
10 0 59264  19380.000000  0       3835561.387       5798496.260       -684628.716
10 0 59264  19440.000000  0       3926199.508       5772824.060       -236537.390
10 0 59264  19500.000000  0       4000034.711       5722216.453        212553.063
10 0 59264  19560.000000  0       4056536.897       5647029.692        660745.075
10 0 59264  19620.000000  0       4095252.591       5547728.154       1106144.107
10 0 59264  19680.000000  0       4115807.831       5424881.706       1546866.762
10 0 59264  19740.000000  0       4117910.682       5279162.706       1981048.802
10 0 59264  19800.000000  0       4101353.465       5111342.603       2406853.240
10 0 59264  19860.000000  0       4066014.508       4922287.845       2822478.443
10 0 59264  19920.000000  0       4011859.334       4712955.243       3226165.821
10 0 59264  19980.000000  0       3938941.499       4484387.140       3616207.232
10 0 59264  20040.000000  0       3847403.107       4237706.188       3990952.242
10 0 59264  20100.000000  0       3737474.949       3974109.759       4348815.127
10 0 59264  20160.000000  0       3609476.115       3694864.131       4688281.682
10 0 59264  20220.000000  0       3463813.024       3401298.341       5007915.721
10 0 59264  20280.000000  0       3300978.081       3094797.649       5306365.073
10 0 59264  20340.000000  0       3121548.000       2776796.851       5582367.054
10 0 59264  20400.000000  0       2926181.815       2448773.566       5834753.622
10 0 59264  20460.000000  0       2715618.489       2112241.346       6062456.259
10 0 59264  20520.000000  0       2490674.086       1768742.609       6264510.411
10 0 59264  20580.000000  0       2252238.555       1419841.513       6440059.415
10 0 59264  20640.000000  0       2001272.194       1067116.837       6588357.979
10 0 59264  20700.000000  0       1738801.767        712154.876       6708775.217
10 0 59264  20760.000000  0       1465916.294        356542.396       6800797.235
10 0 59264  20820.000000  0       1183762.586          1859.633       6864029.334
10 0 59264  20880.000000  0        893540.458       -350326.759       6898197.781
10 0 59264  20940.000000  0        596497.645       -698470.683       6903150.977
10 0 59264  21000.000000  0        293924.477      -1041053.355       6878860.172
10 0 59264  21060.000000  0        -12851.711      -1376589.937       6825419.715
10 0 59264  21120.000000  0       -322472.366      -1703636.022       6743046.801
10 0 59264  21180.000000  0       -633553.734      -2020793.901       6632080.713
10 0 59264  21240.000000  0       -944693.012      -2326718.593       6492981.543
10 0 59264  21300.000000  0      -1254474.583      -2620123.584       6326328.431
10 0 59264  21360.000000  0      -1561476.357      -2899786.314       6132817.450
10 0 59264  21420.000000  0      -1864276.317      -3164553.426       5913259.027
10 0 59264  21480.000000  0      -2161459.152      -3413345.724       5668574.851
10 0 59264  21540.000000  0      -2451622.994      -3645162.817       5399794.295
99
